start=new Date('2022-06-11T00:00:00.000Z').valueOf();
sats=[{"BSTAR":"0.00012509000000","PERIOD":"95.437","LAUNCH_DATE":"2022-02-03","NORAD_CAT_ID":"51464","OBJECT_TYPE":"PAYLOAD","OBJECT_NAME":"STARLINK-3189","TLE_LINE1":"1 51464U 22010J   22161.57015168  .00001703  00000-0  12509-3 0  9991","ECCENTRICITY":"0.00019930","COUNTRY_CODE":"US","RCS_SIZE":"LARGE","DECAY_DATE":null,"EPOCH":"2022-06-10T13:41:01.105152","REV_AT_EPOCH":"2078","CENTER_NAME":"EARTH","TIME_SYSTEM":"UTC","RA_OF_ASC_NODE":"300.8411","OBJECT_ID":"2022-010J","MEAN_MOTION":"15.08842023","MEAN_MOTION_DDOT":"0.0000000000000","APOAPSIS":"541.118","MEAN_ANOMALY":"307.9742","SITE":"AFETR","ARG_OF_PERICENTER":"52.1430","GP_ID":"205865766","CLASSIFICATION_TYPE":"U","SEMIMAJOR_AXIS":"6917.874","EPHEMERIS_TYPE":"0","INCLINATION":"53.2197","MEAN_ELEMENT_THEORY":"SGP4","PERIAPSIS":"538.360","REF_FRAME":"TEME","MEAN_MOTION_DOT":"0.00001703","TLE_LINE2":"2 51464  53.2197 300.8411 0001993  52.1430 307.9742 15.08842023 20785","ELEMENT_SET_NO":"999","FILE":"3490466"},{"OBJECT_TYPE":"PAYLOAD","TLE_LINE1":"1 51465U 22010K   22161.56649225 -.00001234  00000-0 -59455-4 0  9991","OBJECT_NAME":"STARLINK-3401","ECCENTRICITY":"0.00017520","COUNTRY_CODE":"US","BSTAR":"-0.00005945500000","LAUNCH_DATE":"2022-02-03","PERIOD":"95.438","NORAD_CAT_ID":"51465","RA_OF_ASC_NODE":"300.8554","OBJECT_ID":"2022-010K","MEAN_MOTION":"15.08825059","RCS_SIZE":"LARGE","EPOCH":"2022-06-10T13:35:44.930400","DECAY_DATE":null,"REV_AT_EPOCH":"2078","TIME_SYSTEM":"UTC","CENTER_NAME":"EARTH","ARG_OF_PERICENTER":"52.4852","GP_ID":"205866017","CLASSIFICATION_TYPE":"U","APOAPSIS":"541.003","MEAN_MOTION_DDOT":"0.0000000000000","MEAN_ANOMALY":"307.6299","SITE":"AFETR","PERIAPSIS":"538.579","REF_FRAME":"TEME","TLE_LINE2":"2 51465  53.2199 300.8554 0001752  52.4852 307.6299 15.08825059 20784","MEAN_MOTION_DOT":"-0.00001234","FILE":"3490466","ELEMENT_SET_NO":"999","EPHEMERIS_TYPE":"0","SEMIMAJOR_AXIS":"6917.926","MEAN_ELEMENT_THEORY":"SGP4","INCLINATION":"53.2199"},{"MEAN_MOTION":"15.08839279","OBJECT_ID":"2022-010M","RA_OF_ASC_NODE":"300.0588","REV_AT_EPOCH":"2000","TIME_SYSTEM":"UTC","CENTER_NAME":"EARTH","DECAY_DATE":null,"EPOCH":"2022-06-10T17:55:22.721664","RCS_SIZE":"LARGE","COUNTRY_CODE":"US","ECCENTRICITY":"0.00020960","TLE_LINE1":"1 51467U 22010M   22161.74679076  .00001056  00000-0  84471-4 0  9996","OBJECT_NAME":"STARLINK-3178","OBJECT_TYPE":"PAYLOAD","NORAD_CAT_ID":"51467","LAUNCH_DATE":"2022-02-03","PERIOD":"95.438","BSTAR":"0.00008447100000","FILE":"3490466","ELEMENT_SET_NO":"999","TLE_LINE2":"2 51467  53.2178 300.0588 0002096  37.8833 322.2306 15.08839279 20006","MEAN_MOTION_DOT":"0.00001056","REF_FRAME":"TEME","PERIAPSIS":"538.298","INCLINATION":"53.2178","MEAN_ELEMENT_THEORY":"SGP4","EPHEMERIS_TYPE":"0","SEMIMAJOR_AXIS":"6917.883","CLASSIFICATION_TYPE":"U","GP_ID":"205864765","ARG_OF_PERICENTER":"37.8833","SITE":"AFETR","MEAN_ANOMALY":"322.2306","MEAN_MOTION_DDOT":"0.0000000000000","APOAPSIS":"541.198"},{"EPHEMERIS_TYPE":"0","SEMIMAJOR_AXIS":"6917.911","INCLINATION":"53.2223","MEAN_ELEMENT_THEORY":"SGP4","FILE":"3490466","ELEMENT_SET_NO":"999","REF_FRAME":"TEME","PERIAPSIS":"538.394","TLE_LINE2":"2 51468  53.2223 300.0051 0001998  54.8813 305.2367 15.08829975 20000","MEAN_MOTION_DOT":"-0.00001417","MEAN_MOTION_DDOT":"0.0000000000000","APOAPSIS":"541.158","MEAN_ANOMALY":"305.2367","SITE":"AFETR","GP_ID":"205865015","CLASSIFICATION_TYPE":"U","ARG_OF_PERICENTER":"54.8813","DECAY_DATE":null,"EPOCH":"2022-06-10T18:11:17.425248","REV_AT_EPOCH":"2000","TIME_SYSTEM":"UTC","CENTER_NAME":"EARTH","RCS_SIZE":"LARGE","OBJECT_ID":"2022-010N","MEAN_MOTION":"15.08829975","RA_OF_ASC_NODE":"300.0051","NORAD_CAT_ID":"51468","BSTAR":"-0.00007095200000","LAUNCH_DATE":"2022-02-03","PERIOD":"95.438","OBJECT_NAME":"STARLINK-3174","TLE_LINE1":"1 51468U 22010N   22161.75784057 -.00001417  00000-0 -70952-4 0  9996","ECCENTRICITY":"0.00019980","COUNTRY_CODE":"US","OBJECT_TYPE":"PAYLOAD"},{"RA_OF_ASC_NODE":"299.9280","OBJECT_ID":"2022-010P","MEAN_MOTION":"15.08846198","RCS_SIZE":"LARGE","EPOCH":"2022-06-10T18:32:28.423680","DECAY_DATE":null,"REV_AT_EPOCH":"2031","TIME_SYSTEM":"UTC","CENTER_NAME":"EARTH","OBJECT_TYPE":"PAYLOAD","ECCENTRICITY":"0.00018370","TLE_LINE1":"1 51469U 22010P   22161.77255120 -.00000278  00000-0  61256-6 0  9995","OBJECT_NAME":"STARLINK-3182","COUNTRY_CODE":"US","BSTAR":"0.00000061256000","LAUNCH_DATE":"2022-02-03","PERIOD":"95.437","NORAD_CAT_ID":"51469","REF_FRAME":"TEME","PERIAPSIS":"538.456","TLE_LINE2":"2 51469  53.2180 299.9280 0001837  36.9748 323.1371 15.08846198 20317","MEAN_MOTION_DOT":"-0.00000278","FILE":"3490466","ELEMENT_SET_NO":"999","EPHEMERIS_TYPE":"0","SEMIMAJOR_AXIS":"6917.861","INCLINATION":"53.2180","MEAN_ELEMENT_THEORY":"SGP4","ARG_OF_PERICENTER":"36.9748","GP_ID":"205865267","CLASSIFICATION_TYPE":"U","MEAN_MOTION_DDOT":"0.0000000000000","APOAPSIS":"540.997","MEAN_ANOMALY":"323.1371","SITE":"AFETR"},{"NORAD_CAT_ID":"51471","BSTAR":"-0.00005271300000","PERIOD":"95.438","LAUNCH_DATE":"2022-02-03","OBJECT_NAME":"STARLINK-3165","TLE_LINE1":"1 51471U 22010R   22161.78221768 -.00001127  00000-0 -52713-4 0  9991","ECCENTRICITY":"0.00018900","COUNTRY_CODE":"US","OBJECT_TYPE":"PAYLOAD","DECAY_DATE":null,"EPOCH":"2022-06-10T18:46:23.607552","REV_AT_EPOCH":"2038","CENTER_NAME":"EARTH","TIME_SYSTEM":"UTC","RCS_SIZE":"LARGE","OBJECT_ID":"2022-010R","MEAN_MOTION":"15.08833313","RA_OF_ASC_NODE":"294.8897","APOAPSIS":"541.073","MEAN_MOTION_DDOT":"0.0000000000000","MEAN_ANOMALY":"316.6446","SITE":"AFETR","GP_ID":"205865518","CLASSIFICATION_TYPE":"U","ARG_OF_PERICENTER":"43.4694","SEMIMAJOR_AXIS":"6917.901","EPHEMERIS_TYPE":"0","INCLINATION":"53.2190","MEAN_ELEMENT_THEORY":"SGP4","ELEMENT_SET_NO":"999","FILE":"3490466","PERIAPSIS":"538.458","REF_FRAME":"TEME","MEAN_MOTION_DOT":"-0.00001127","TLE_LINE2":"2 51471  53.2190 294.8897 0001890  43.4694 316.6446 15.08833313 20383"},{"NORAD_CAT_ID":"51472","BSTAR":"-0.00000418310000","PERIOD":"95.438","LAUNCH_DATE":"2022-02-03","OBJECT_NAME":"STARLINK-3415","TLE_LINE1":"1 51472U 22010S   22161.82039653 -.00000355  00000-0 -41831-5 0  9999","ECCENTRICITY":"0.00019290","COUNTRY_CODE":"US","OBJECT_TYPE":"PAYLOAD","DECAY_DATE":null,"EPOCH":"2022-06-10T19:41:22.260192","REV_AT_EPOCH":"2082","TIME_SYSTEM":"UTC","CENTER_NAME":"EARTH","RCS_SIZE":"LARGE","OBJECT_ID":"2022-010S","MEAN_MOTION":"15.08835902","RA_OF_ASC_NODE":"299.7244","APOAPSIS":"541.092","MEAN_MOTION_DDOT":"0.0000000000000","SITE":"AFETR","MEAN_ANOMALY":"308.9754","GP_ID":"205834395","CLASSIFICATION_TYPE":"U","ARG_OF_PERICENTER":"51.1410","SEMIMAJOR_AXIS":"6917.893","EPHEMERIS_TYPE":"0","INCLINATION":"53.2217","MEAN_ELEMENT_THEORY":"SGP4","ELEMENT_SET_NO":"999","FILE":"3490160","PERIAPSIS":"538.423","REF_FRAME":"TEME","MEAN_MOTION_DOT":"-0.00000355","TLE_LINE2":"2 51472  53.2217 299.7244 0001929  51.1410 308.9754 15.08835902 20820"},{"RCS_SIZE":"LARGE","DECAY_DATE":null,"EPOCH":"2022-06-10T22:00:00.999936","REV_AT_EPOCH":"130","CENTER_NAME":"EARTH","TIME_SYSTEM":"UTC","RA_OF_ASC_NODE":"349.2973","OBJECT_ID":"2022-016A","MEAN_MOTION":"15.08840579","BSTAR":"-0.00044694000000","LAUNCH_DATE":"2022-02-21","PERIOD":"95.438","NORAD_CAT_ID":"51714","OBJECT_TYPE":"PAYLOAD","ECCENTRICITY":"0.00020180","TLE_LINE1":"1 51714U 22016A   22161.91667824 -.00007394  00000-0 -44694-3 0  9999","OBJECT_NAME":"STARLINK-3528","COUNTRY_CODE":"US","EPHEMERIS_TYPE":"0","SEMIMAJOR_AXIS":"6917.879","INCLINATION":"53.2181","MEAN_ELEMENT_THEORY":"SGP4","REF_FRAME":"TEME","PERIAPSIS":"538.348","TLE_LINE2":"2 51714  53.2181 349.2973 0002018  49.2013  99.1944 15.08840579  1304","MEAN_MOTION_DOT":"-0.00007394","FILE":"3490466","ELEMENT_SET_NO":"999","MEAN_MOTION_DDOT":"0.0000000000000","APOAPSIS":"541.140","MEAN_ANOMALY":"99.1944","SITE":"AFETR","ARG_OF_PERICENTER":"49.2013","GP_ID":"205865782","CLASSIFICATION_TYPE":"U"},{"TLE_LINE2":"2 51715  53.2193 349.2941 0001867  45.3829 163.0192 15.08846590  1301","MEAN_MOTION_DOT":"-0.00006795","PERIAPSIS":"538.434","REF_FRAME":"TEME","FILE":"3490466","ELEMENT_SET_NO":"999","MEAN_ELEMENT_THEORY":"SGP4","INCLINATION":"53.2193","EPHEMERIS_TYPE":"0","SEMIMAJOR_AXIS":"6917.860","ARG_OF_PERICENTER":"45.3829","CLASSIFICATION_TYPE":"U","GP_ID":"205866033","SITE":"AFETR","MEAN_ANOMALY":"163.0192","MEAN_MOTION_DDOT":"0.0000000000000","APOAPSIS":"541.017","RA_OF_ASC_NODE":"349.2941","MEAN_MOTION":"15.08846590","OBJECT_ID":"2022-016B","RCS_SIZE":"LARGE","REV_AT_EPOCH":"130","CENTER_NAME":"EARTH","TIME_SYSTEM":"UTC","EPOCH":"2022-06-10T22:00:00.999936","DECAY_DATE":null,"OBJECT_TYPE":"PAYLOAD","COUNTRY_CODE":"US","TLE_LINE1":"1 51715U 22016B   22161.91667824 -.00006795  00000-0 -40911-3 0  9992","OBJECT_NAME":"STARLINK-3533","ECCENTRICITY":"0.00018670","LAUNCH_DATE":"2022-02-21","PERIOD":"95.437","BSTAR":"-0.00040911000000","NORAD_CAT_ID":"51715"},{"OBJECT_TYPE":"PAYLOAD","TLE_LINE1":"1 51716U 22016C   22161.91667824  .00038055  00000-0  23972-2 0  9992","OBJECT_NAME":"STARLINK-3543","ECCENTRICITY":"0.00019220","COUNTRY_CODE":"US","BSTAR":"0.00239720000000","LAUNCH_DATE":"2022-02-21","PERIOD":"95.438","NORAD_CAT_ID":"51716","RA_OF_ASC_NODE":"349.2966","OBJECT_ID":"2022-016C","MEAN_MOTION":"15.08825534","RCS_SIZE":"LARGE","EPOCH":"2022-06-10T22:00:00.999936","DECAY_DATE":null,"CENTER_NAME":"EARTH","REV_AT_EPOCH":"130","TIME_SYSTEM":"UTC","ARG_OF_PERICENTER":"48.5092","GP_ID":"205864781","CLASSIFICATION_TYPE":"U","APOAPSIS":"541.119","MEAN_MOTION_DDOT":"0.0000000000000","SITE":"AFETR","MEAN_ANOMALY":"119.8510","REF_FRAME":"TEME","PERIAPSIS":"538.460","TLE_LINE2":"2 51716  53.2188 349.2966 0001922  48.5092 119.8510 15.08825534  1300","MEAN_MOTION_DOT":"0.00038055","FILE":"3490466","ELEMENT_SET_NO":"999","EPHEMERIS_TYPE":"0","SEMIMAJOR_AXIS":"6917.925","INCLINATION":"53.2188","MEAN_ELEMENT_THEORY":"SGP4"}];
